EYESAT A (AO-27)        
1 22825U 93061C   26169.67804800  .00000072  00000+0  44468-4 0  9993
2 22825  98.6880 237.0911 0009544  95.9420 264.2850 14.30942642707213
ITAMSAT (IO-26)         
1 22826U 93061D   26169.44730699  .00000077  00000+0  45886-4 0  9993
2 22826  98.6829 236.7780 0010060  81.6233 278.6090 14.31369493707499
RADIO ROSTO (RS15)      
1 23439U 94085A   26169.62369556 -.00000041  00000+0  42691-4 0  9994
2 23439  64.8186 300.8928 0155980   3.6110 356.5903 11.27583454296069
JAS-2 (FO-29)           
1 24278U 96046B   26169.05046237 -.00000003  00000+0  30027-4 0  9998
2 24278  98.5238  17.8043 0350914  94.1986 269.9331 13.53274469473283
FORTE                   
1 24920U 97047A   26169.63591185  .00000112  00000+0  68349-4 0  9993
2 24920  69.9539  10.7488 0024622 275.5914  84.2400 14.27945625498898
TECHSAT 1B (GO-32)      
1 25397U 98043D   26169.67997870  .00000036  00000+0  35731-4 0  9998
2 25397  99.0067 162.4763 0001133 159.7014 200.4209 14.24428642451546
ISS (ZARYA)             
1 25544U 98067A   26169.47955539  .00008910  00000+0  16794-3 0  9998
2 25544  51.6334 293.6965 0004755 201.5062 158.5728 15.49298053571950
IMAGE                   
1 26113U 00017A   26162.34581823  .00000011  00000+0  22926-1 0  9995
2 26113  94.2241 315.2958 7436383 288.4674   8.8959  1.68665984161407
CLUSTER II-FM7 (SAMBA)  
1 26410U 00041A   26170.36958808  .00004714  00000+0  00000+0 0  9995
2 26410 149.9200  51.3283 9058303 268.5109 359.4853  0.44833363 20329
CLUSTER II-FM8 (TANGO)  
1 26464U 00045B   26166.18760269  .00011725  00000+0  00000+0 0  9995
2 26464 150.1504  51.7507 9057004 268.7261   2.8044  0.44418308 20307
ODIN                    
1 26702U 01007A   26169.68178970  .00153947  00000+0  96741-3 0  9993
2 26702  97.3818 210.7208 0006625 142.4379 217.7350 15.76258882389630
OMNI-M1                 
1 26857U 01026A   26167.20907279 -.00000001  00000+0  00000+0 0  9995
2 26857  44.8307 245.4893 0014194  53.4474 306.7446  3.92401638205538
PCSAT (NO-44)           
1 26931U 01043C   26169.48637696  .00000076  00000+0  59455-4 0  9996
2 26931  67.0504 240.9116 0006080 264.6354  95.4054 14.31956504290637
PROBA-1                 
1 26958U 01049B   26169.72971248  .00000909  00000+0  62372-4 0  9999
2 26958  97.9594 178.3162 0056476 116.7708 243.9313 15.07496952343857
SAUDISAT 1C (SO-50)     
1 27607U 02058C   26169.36907802  .00000788  00000+0  11046-3 0  9993
2 27607  64.5511 125.3282 0075194 262.2562  97.0002 14.83049237264630
CORIOLIS                
1 27640U 03001A   26169.60648225  .00000070  00000+0  53491-4 0  9992
2 27640  98.7124 176.4696 0013480 204.4385 155.6153 14.19945150214421
CUTE-1 (CO-55)          
1 27844U 03031E   26169.02064842  .00000221  00000+0  11471-3 0  9993
2 27844  98.6736 177.5689 0009609 175.5784 184.5482 14.24336174191794
CUBESAT XI-IV (CO-57)   
1 27848U 03031J   26168.93924090  .00000186  00000+0  10079-3 0  9999
2 27848  98.6765 177.2007 0009073 194.7196 165.3719 14.23621196191482
MOZHAETS 4 (RS22)       
1 27939U 03042A   26169.77341528  .00001088  00000+0  17574-3 0  9993
2 27939  98.3464 354.1766 0009914 264.1239 154.0055 14.73470910215787
